{
  "type": "FeatureCollection",
  "features": [
    {
      "type": "Feature",
      "properties": {
        "name": "Rustoort 2500 Hectare",
        "description": ""
      },
      "geometry": {
        "type": "Polygon",
        "coordinates": [
          [
            [
              15.60873664820901,
              -19.39686990603623
            ],
            [
              15.62346691536542,
              -19.34707910028545
            ],
            [
              15.59730811990367,
              -19.34132313237836
            ],
            [
              15.57162310788946,
              -19.33413410681426
            ],
            [
              15.56331687027783,
              -19.35384036722792
            ],
            [
              15.56300499791854,
              -19.35414155294739
            ],
            [
              15.56147043599377,
              -19.35729950609386
            ],
            [
              15.56135823512003,
              -19.35703065840447
            ],
            [
              15.58047727829156,
              -19.37386736892637
            ],
            [
              15.58784686741789,
              -19.37997833139841
            ],
            [
              15.59207479989011,
              -19.38369899158275
            ],
            [
              15.5954685296088,
              -19.38682001682941
            ],
            [
              15.60198221620042,
              -19.39244444881579
            ],
            [
              15.60456099805256,
              -19.39466497472803
            ],
            [
              15.60596469490907,
              -19.39585403732566
            ],
            [
              15.60665692125991,
              -19.39645091608421
            ],
            [
              15.60695734936554,
              -19.39668665350029
            ],
            [
              15.60732142766515,
              -19.39703060554395
            ],
            [
              15.60774312017388,
              -19.39739594327492
            ],
            [
              15.60789923755904,
              -19.39749744296176
            ],
            [
              15.6080802249922,
              -19.39766659634044
            ],
            [
              15.60845299326297,
              -19.39802316798183
            ],
            [
              15.60848163403868,
              -19.39800938191811
            ],
            [
              15.60848006087283,
              -19.39799897632552
            ],
            [
              15.60869765599433,
              -19.3971030020038
            ],
            [
              15.60869803124406,
              -19.39699790139709
            ],
            [
              15.60873664820901,
              -19.39686990603623
            ]
          ]
        ]
      }
    },
    {
      "type": "Feature",
      "properties": {
        "name": "Untitled measurement",
        "description": ""
      },
      "geometry": {
        "type": "LineString",
        "coordinates": [
          [
            15.60029687019487,
            -19.37599967681069
          ],
          [
            15.60134779166517,
            -19.37642090034685
          ]
        ]
      }
    },
    {
      "type": "Feature",
      "properties": {
        "name": "Completed",
        "description": "<div>Built and completed</div>"
      },
      "geometry": {
        "type": "LineString",
        "coordinates": [
          [
            15.59916198059145,
            -19.38361069352412
          ],
          [
            15.60010583676535,
            -19.38353303191931
          ]
        ]
      }
    },
    {
      "type": "Feature",
      "properties": {
        "name": "Untitled measurement",
        "description": ""
      },
      "geometry": {
        "type": "LineString",
        "coordinates": [
          [
            15.60579519552022,
            -19.3796656225586
          ],
          [
            15.60680601281791,
            -19.37970388172803
          ]
        ]
      }
    },
    {
      "type": "Feature",
      "properties": {
        "name": "Untitled measurement",
        "description": ""
      },
      "geometry": {
        "type": "LineString",
        "coordinates": [
          [
            15.59390378095853,
            -19.36353947493548
          ],
          [
            15.59685718158341,
            -19.36319540319554
          ]
        ]
      }
    },
    {
      "type": "Feature",
      "properties": {
        "name": "Untitled measurement",
        "description": ""
      },
      "geometry": {
        "type": "LineString",
        "coordinates": [
          [
            15.61164587545357,
            -19.36699948886113
          ],
          [
            15.61371234053756,
            -19.36742465154742
          ]
        ]
      }
    },
    {
      "type": "Feature",
      "properties": {
        "name": "Untitled measurement",
        "description": ""
      },
      "geometry": {
        "type": "LineString",
        "coordinates": [
          [
            15.60344292769022,
            -19.36481031263731
          ],
          [
            15.60497020976182,
            -19.36524937373695
          ]
        ]
      }
    },
    {
      "type": "Feature",
      "properties": {
        "name": "Untitled measurement",
        "description": ""
      },
      "geometry": {
        "type": "LineString",
        "coordinates": [
          [
            15.60932491450354,
            -19.37842675181275
          ],
          [
            15.6105413654154,
            -19.37973402956625
          ]
        ]
      }
    },
    {
      "type": "Feature",
      "properties": {
        "name": "Untitled measurement",
        "description": ""
      },
      "geometry": {
        "type": "LineString",
        "coordinates": [
          [
            15.6018628032906,
            -19.38167124077474
          ],
          [
            15.60315149173963,
            -19.38238283032448
          ]
        ]
      }
    },
    {
      "type": "Feature",
      "properties": {
        "name": "Untitled measurement",
        "description": ""
      },
      "geometry": {
        "type": "LineString",
        "coordinates": [
          [
            15.60689473275491,
            -19.38963684267611
          ],
          [
            15.6092262417702,
            -19.38987431285092
          ]
        ]
      }
    },
    {
      "type": "Feature",
      "properties": {
        "name": "Ongava boarder",
        "description": ""
      },
      "geometry": {
        "type": "LineString",
        "coordinates": [
          [
            15.69868265169779,
            -19.36377487120735
          ],
          [
            15.57189649573042,
            -19.33456856899492
          ],
          [
            15.55590220088924,
            -19.36839547752204
          ]
        ]
      }
    },
    {
      "type": "Feature",
      "properties": {
        "name": "D2695 Gravel Highway",
        "description": ""
      },
      "geometry": {
        "type": "LineString",
        "coordinates": [
          [
            15.6184139232884,
            -19.41191982688204
          ],
          [
            15.60059782224287,
            -19.40139913782929
          ],
          [
            15.58465511574351,
            -19.39023453921169
          ],
          [
            15.55280478837699,
            -19.36835159024992
          ]
        ]
      }
    },
    {
      "type": "Feature",
      "properties": {
        "name": "Waterpoint",
        "description": ""
      },
      "geometry": {
        "type": "Polygon",
        "coordinates": [
          [
            [
              15.58460200596899,
              -19.36659994375034
            ],
            [
              15.58564565125105,
              -19.36679616063227
            ],
            [
              15.58580022636755,
              -19.36612287348569
            ],
            [
              15.5847304057434,
              -19.36592744089914
            ],
            [
              15.58460200596899,
              -19.36659994375034
            ]
          ]
        ]
      }
    },
    {
      "type": "Feature",
      "properties": {
        "name": "Waterpoint",
        "description": ""
      },
      "geometry": {
        "type": "Polygon",
        "coordinates": [
          [
            [
              15.59354378837788,
              -19.35251757598513
            ],
            [
              15.59339513421956,
              -19.35334605089097
            ],
            [
              15.5945239302536,
              -19.35350791606175
            ],
            [
              15.59465271551522,
              -19.35267029615186
            ],
            [
              15.59354378837788,
              -19.35251757598513
            ]
          ]
        ]
      }
    },
    {
      "type": "Feature",
      "properties": {
        "name": "Waterpoint",
        "description": ""
      },
      "geometry": {
        "type": "Polygon",
        "coordinates": [
          [
            [
              15.60111269713679,
              -19.39079714145202
            ],
            [
              15.60159366399525,
              -19.39117447925157
            ],
            [
              15.60197071574465,
              -19.39074423116242
            ],
            [
              15.60149275685161,
              -19.39034454355221
            ],
            [
              15.60111269713679,
              -19.39079714145202
            ]
          ]
        ]
      }
    },
    {
      "type": "Feature",
      "properties": {
        "name": "Etosha National Game Reserve",
        "description": ""
      },
      "geometry": {
        "type": "LineString",
        "coordinates": [
          [
            15.50961838790998,
            -19.2402827386053
          ],
          [
            15.74185134939117,
            -19.28371846277412
          ],
          [
            15.83271274665244,
            -19.2915430939748
          ],
          [
            16.05386846154345,
            -19.36062599787704
          ],
          [
            16.16424572854145,
            -19.36492723210501
          ],
          [
            16.3046768895661,
            -19.41351666722815
          ],
          [
            16.36407303484085,
            -19.41261081634658
          ],
          [
            16.47267772221361,
            -19.43576043738958
          ],
          [
            16.58616220610394,
            -19.43405590188079
          ],
          [
            16.69234601830649,
            -19.48754626278854
          ]
        ]
      }
    },
    {
      "type": "Feature",
      "properties": {
        "name": "Rustoord boarder",
        "description": ""
      },
      "geometry": {
        "type": "LineString",
        "coordinates": [
          [
            15.6084189522588,
            -19.39799722157083
          ],
          [
            15.56100990604725,
            -19.35744472255603
          ]
        ]
      }
    }
  ]
}